CUTE-1 (CO-55)          
1 27844U 03031E   26166.28097488  .00000237  00000+0  12153-3 0  9995
2 27844  98.6736 174.8638 0009408 183.5236 176.5879 14.24334631191401
CUBESAT XI-IV (CO-57)   
1 27848U 03031J   26165.98734313  .00000202  00000+0  10800-3 0  9999
2 27848  98.6767 174.2883 0008884 203.7736 156.3033 14.23619747191065
CUBESAT XI-V            
1 28895U 05043F   26165.88858498  .00001256  00000+0  20533-3 0  9991
2 28895  98.2983 321.4622 0013493 208.2706 151.7770 14.72626136101411
CUTE-1.7+APD II (CO-65) 
1 32785U 08021C   26166.26004465  .00003803  00000+0  24165-3 0  9998
2 32785  97.8271 147.6385 0010021  45.1907 315.0134 15.09436261984909
CANX-2                  
1 32790U 08021H   26166.22799382  .00003974  00000+0  27971-3 0  9996
2 32790  97.8629 145.9673 0011453  56.1146 304.1168 15.05602702984514
SEEDS II (CO-66)        
1 32791U 08021J   26165.98115090  .00016500  00000+0  52480-3 0  9999
2 32791  97.7510 163.7734 0001398  12.1045 348.0229 15.32687041986950
SWISSCUBE               
1 35932U 09051B   26166.25297169  .00000842  00000+0  17592-3 0  9999
2 35932  98.4038  74.1075 0005844 209.7614 150.3255 14.62478329888876
BEESAT-1                
1 35933U 09051C   26166.26140066  .00000698  00000+0  14995-3 0  9997
2 35933  98.3966  73.7557 0004121 224.3170 135.7701 14.61717657888909
ITUPSAT1                
1 35935U 09051E   26165.22290826  .00000683  00000+0  15098-3 0  9993
2 35935  98.4052  71.8963 0006164 244.9503 115.1057 14.60436749888304
TISAT 1                 
1 36799U 10035E   26166.09188583  .00018059  00000+0  59315-3 0  9994
2 36799  98.0712 112.4550 0001141 171.8343 188.2915 15.31640446867385
AEROCUBE 4.5A           
1 38767U 12048K   26165.96807538  .00413946  74855-4  10713-2 0  9996
2 38767  64.6249  35.0020 0019534 222.2372 137.7286 15.94483897372303
STRAND-1                
1 39090U 13009E   26165.75848833  .00000234  00000+0  92916-4 0  9999
2 39090  98.3921 346.0527 0007612 233.5298 126.5188 14.37162022696718
BRITE-AUSTRIA           
1 39091U 13009F   26166.04892279  .00000145  00000+0  64060-4 0  9996
2 39091  98.3993 345.5376 0009070 243.6943 116.3312 14.36541345696740
NEE-01 PEGASO           
1 39151U 13018B   26165.31799982  .00002150  00000+0  20906-3 0  9997
2 39151  98.1215 309.3736 0012835 168.5620 191.5892 14.93647786710272
POPACS 2                
1 39269U 13055E   26165.96205892  .00012482  00000+0  21152-3 0  9994
2 39269  80.9900 146.7389 0416885 200.9302 157.4413 14.91163694662882
POPACS 3                
1 39270U 13055F   26166.19543802  .00008226  00000+0  19312-3 0  9994
2 39270  81.0020 231.3465 0552324  76.0542 290.1420 14.56091592638268
ZACUBE-1 (TSHEPISOSAT)  
1 39417U 13066B   26166.14099515  .00003020  00000+0  23640-3 0  9997
2 39417  97.8083 128.4670 0040580 254.8393 104.8341 15.01179105680421
WNISAT-1                
1 39423U 13066H   26166.15231250  .00000708  00000+0  13783-3 0  9996
2 39423  97.7198 315.4530 0161882 238.0452 120.4922 14.58059019666432
TRITON-1                
1 39427U 13066M   26166.26967561  .00001907  00000+0  23319-3 0  9991
2 39427  97.8256  76.1208 0088387 240.2915 118.9479 14.81702144673800
GOMX-1                  
1 39430U 13066Q   26166.27934856  .00001958  00000+0  29764-3 0  9993
2 39430  97.6480   6.8625 0130165  83.6082 277.9929 14.69455078669639
CUBEBUG-2 (LO-74)       
1 39440U 13066AA  26166.32154138  .00003784  00000+0  35112-3 0  9990
2 39440  97.8905 115.2917 0058511  35.0679 325.4371 14.93747355676716
NEE-02 KRYSAOR          
1 39441U 13066AB  26165.78611107  .00002294  00000+0  25439-3 0  9990
2 39441  97.8892 105.0179 0067683  77.8903 282.9886 14.86609034675847
FUNCUBE-1 (AO-73)       
1 39444U 13066AE  26166.20043176  .00005988  00000+0  37272-3 0  9997
2 39444  97.8272 137.6048 0035478 207.9767 151.9555 15.09468323679368
UWE-3                   
1 39446U 13066AG  26165.80939092  .00004072  00000+0  35106-3 0  9992
2 39446  97.8691 121.8670 0047958 329.0544  30.7853 14.97007906677226
BRITE-CA1 (TORONTO)     
1 40020U 14033L   26166.27122621  .00000599  00000+0  97851-4 0  9997
2 40020  97.9736 295.2345 0077247 283.2628  75.9972 14.72674193641933
DUCHIFAT-1              
1 40021U 14033M   26166.10272097  .00097028  00000+0  10109-2 0  9995
2 40021  98.0469 224.9698 0003177 116.5852 243.5731 15.64229464655421
NANOSATC-BR1            
1 40024U 14033Q   26165.59181314  .00015703  00000+0  52030-3 0  9991
2 40024  98.0719 197.7493 0004179 169.8700 190.2624 15.31384789653588
QB50P1                  
1 40025U 14033R   26165.97514943  .00008035  00000+0  39591-3 0  9999
2 40025  98.0959 176.9659 0007645 224.1126 135.9497 15.18232350652692
QB50P2                  
1 40032U 14033Y   26165.98676764  .00006248  00000+0  33703-3 0  9991
2 40032  98.0745 162.7299 0007812 169.9799 190.1588 15.15135058652333
PERSEUS-M2              
1 40037U 14033AD  26166.32352172  .00001342  00000+0  12663-3 0  9991
2 40037  97.9956 116.8261 0010970 310.9482  49.0787 14.95504257650503
